SOYUZ-MS 26             
1 61043U 24162A   24279.79195405  .00031326  00000+0  56846-3 0  9999
2 61043  51.6361 127.5460 0009172  40.4137 319.7532 15.49263048475504
SPACEMOBILE-003         
1 61045U 24163A   24279.88372453  .00007346  00000+0  37947-3 0  9998
2 61045  52.9770 274.3365 0013607  33.1715 327.0128 15.17233041  3570
SPACEMOBILE-005         
1 61046U 24163B   24279.88018477  .00007707  00000+0  39465-3 0  9990
2 61046  52.9783 274.3232 0014229  37.3498 322.8481 15.17462009  3565
SPACEMOBILE-001         
1 61047U 24163C   24279.87947488  .00007751  00000+0  39633-3 0  9999
2 61047  52.9747 274.3003 0014037  38.0120 322.1861 15.17508760  3569
SPACEMOBILE-002         
1 61048U 24163D   24279.87539802  .00008770  00000+0  44299-3 0  9993
2 61048  52.9778 274.2834 0013408  41.3841 318.8166 15.17776543  3569
SPACEMOBILE-004         
1 61049U 24163E   24279.87275311  .00016626  00000+0  82050-3 0  9992
2 61049  52.9776 274.2734 0013791  46.1821 314.0309 15.17958955  3569
STARLINK-11286 [DTC]    
1 61050U 24164A   24279.92421846  .00050039  00000+0  30779-3 0  9994
2 61050  53.1573 354.2866 0001248 250.6466 109.4419 15.76738764  4800
STARLINK-11252 [DTC]    
1 61051U 24164B   24280.17294158  .00007332  00000+0  48962-4 0  9990
2 61051  53.1570 352.9900 0001527 125.3249 234.7915 15.76632987  4756
STARLINK-11284 [DTC]    
1 61052U 24164C   24279.91446974  .00015195  00000+0  96606-4 0  9990
2 61052  53.1565 354.2205 0001161  66.4562 293.6581 15.76744169  3771
STARLINK-11230 [DTC]    
1 61053U 24164D   24280.22652946  .00324454  00000+0  19032-2 0  9992
2 61053  53.1551 352.6103 0000678 133.6135 226.4943 15.76828602  4863
STARLINK-11294 [DTC]    
1 61054U 24164E   24279.84132506  .00108100  00000+0  65569-3 0  9999
2 61054  53.1558 354.4721 0001092 103.2872 256.8271 15.76743125  3764
STARLINK-11268 [DTC]    
1 61055U 24164F   24279.83643831  .00118074  00000+0  71512-3 0  9993
2 61055  53.1560 354.4399 0002999  40.6315 319.4929 15.76735169  3767
STARLINK-11156 [DTC]    
1 61056U 24164G   24279.83156093 -.00001357  00000+0 -42872-5 0  9999
2 61056  53.1565 354.4088 0001918  52.5115 307.6080 15.76714930  3768
STARLINK-11231 [DTC]    
1 61057U 24164H   24279.91667824 -.01099727  00000+0 -89017-2 0  9996
2 61057  53.1609 353.9531 0001160  55.8610  83.2422 15.72799069  4748
STARLINK-11299 [DTC]    
1 61058U 24164J   24279.91667824 -.01101345  00000+0 -89168-2 0  9994
2 61058  53.1590 353.8956 0000955  65.4368 101.4033 15.72799719  4828
STARLINK-11154 [DTC]    
1 61059U 24164K   24279.91667824 -.01100075  00000+0 -89054-2 0  9998
2 61059  53.1593 353.8372 0001003  64.6365 129.9396 15.72799065  4839
STARLINK-11297 [DTC]    
1 61060U 24164L   24280.25001157 -.01069609  00000+0 -89253-2 0  9998
2 61060  53.1592 352.1290 0000788  84.3946 225.8788 15.72019633  4707
STARLINK-11233 [DTC]    
1 61061U 24164M   24279.91667824 -.01094456  00000+0 -88563-2 0  9990
2 61061  53.1591 353.7234 0000834  78.8837 171.1672 15.72796253  4830
STARLINK-11236 [DTC]    
1 61062U 24164N   24279.91667824 -.01093184  00000+0 -88450-2 0  9993
2 61062  53.1593 353.6657 0000817  69.9169 207.8702 15.72795931  4654
STARLINK-32350          
1 61063U 24164P   24279.91667824 -.00010140  00000+0 -17444-3 0  9990
2 61063  53.1592 355.1068 0001081  83.2489 203.2228 15.49317287  4757
STARLINK-32378          
1 61064U 24164Q   24279.91667824 -.00010355  00000+0 -17832-3 0  9990
2 61064  53.1593 355.0988 0001011  81.7583 208.5466 15.49317346  4747
STARLINK-32321          
1 61065U 24164R   24280.25001157 -.01513616  00000+0 -31397-1 0  9990
2 61065  53.1593 353.5100 0000873  75.5189 272.2609 15.48094911  4842
STARLINK-32381          
1 61066U 24164S   24279.91667824 -.00016886  00000+0 -29607-3 0  9990
2 61066  53.1596 355.0948 0000900 115.0098 177.2082 15.49322078  4751
STARLINK-32368          
1 61067U 24164T   24279.91667824 -.00012272  00000+0 -21283-3 0  9998
2 61067  53.1590 355.0908 0001156  87.2550 206.8752 15.49322750  4759
STARLINK-32385          
1 61068U 24164U   24280.25001157 -.01512706  00000+0 -29937-1 0  9999
2 61068  53.1592 353.4846 0000842 113.9547 246.1553 15.49423491  4849
STARLINK-32380          
1 61069U 24164V   24279.91667824 -.00009602  00000+0 -16471-3 0  9996
2 61069  53.1595 355.0829 0000930  87.8710 210.0903 15.49322895  4756
STARLINK-32375          
1 61070U 24164W   24279.91667824 -.00013514  00000+0 -23522-3 0  9990
2 61070  53.1594 355.0869 0001017  92.9740 203.0737 15.49322684  4795
